NORAD_CAT_ID,OBJECT_NAME,OBJECT_TYPE,EPOCH,MEAN_MOTION,ECCENTRICITY,INCLINATION,RA_OF_ASC_NODE,ARG_OF_PERICENTER,MEAN_ANOMALY,BSTAR,MEAN_MOTION_DOT,MEAN_MOTION_DDOT,TLE_LINE0,TLE_LINE1,TLE_LINE2,SEMIMAJOR_AXIS,PERIOD,APOGEE,PERIGEE,DECAYED
51144.0,STARLINK-3185,PAYLOAD,2022-04-09 14:00:01,15.34558396,0.0001767,53.2174,240.562,37.6416,268.756,-0.022861,-0.00716971,0.0,0 STARLINK-3185,1 51144U 22005AS  22099.58334491 -.00716971  00000-0 -22861-1 0  9996,2 51144  53.2174 240.5620 0001767  37.6416 268.7560 15.34558396  3664,6840.369000000002,93.838,463.443,461.026,0.0
51144.0,STARLINK-3185,PAYLOAD,2022-04-09 22:00:00,15.34049703,0.00015,53.2173,239.0078,43.0747,305.5082,-0.023289,-0.00718453,0.0,0 STARLINK-3185,1 51144U 22005AS  22099.91667824 -.00718453  00000-0 -23289-1 0  9994,2 51144  53.2173 239.0078 0001500  43.0747 305.5082 15.34049703 13988,6841.882,93.869,464.773,462.72,0.0
51144.0,STARLINK-3185,PAYLOAD,2022-04-10 14:00:01,15.33029355,0.0002048,53.2174,235.9017,28.0225,43.0956,-0.024069,-0.00718856,0.0,0 STARLINK-3185,1 51144U 22005AS  22100.58334491 -.00718856  00000-0 -24069-1 0  9995,2 51144  53.2174 235.9017 0002048  28.0225  43.0956 15.33029355  3667,6844.917,93.932,468.184,465.38,0.0
51144.0,STARLINK-3185,PAYLOAD,2022-04-10 20:00:01,15.32644889,0.0001553,53.2175,234.7389,41.2291,330.2075,-0.024216,-0.00714753,0.0,0 STARLINK-3185,1 51144U 22005AS  22100.83334491 -.00714753  00000-0 -24216-1 0  9999,2 51144  53.2175 234.7389 0001553  41.2291 330.2075 15.32644889 14127,6846.062,93.955,468.99,466.864,0.0
51144.0,STARLINK-3185,PAYLOAD,2022-04-10 22:00:00,15.32518247,0.0001679,53.2172,234.3508,39.5533,71.9129,-0.024362,-0.00716099,0.0,0 STARLINK-3185,1 51144U 22005AS  22100.91667824 -.00716099  00000-0 -24362-1 0  9994,2 51144  53.2172 234.3508 0001679  39.5533  71.9129 15.32518247  3676,6846.439,93.963,469.453,467.154,0.0
51144.0,STARLINK-3185,PAYLOAD,2022-04-11 14:00:01,15.31496951,0.0002105,53.2174,231.2519,33.6416,156.6831,-0.025104,-0.00714725,0.0,0 STARLINK-3185,1 51144U 22005AS  22101.58334491 -.00714725  00000-0 -25104-1 0  9998,2 51144  53.2174 231.2519 0002105  33.6416 156.6831 15.31496951  3662,6849.482,94.026,472.789,469.906,0.0
51144.0,STARLINK-3185,PAYLOAD,2022-04-11 20:00:01,15.31114171,0.0001788,53.2173,230.0916,40.0746,89.1892,-0.025352,-0.00713246,0.0,0 STARLINK-3185,1 51144U 22005AS  22101.83334491 -.00713246  00000-0 -25352-1 0  9998,2 51144  53.2173 230.0916 0001788  40.0746  89.1892 15.31114171 14281,6850.624,94.049,473.714,471.264,0.0
51144.0,STARLINK-3185,PAYLOAD,2022-04-11 22:00:00,15.30990016,0.0001747,53.2172,229.7045,43.4572,185.3759,-0.025691,-0.00719461,0.0,0 STARLINK-3185,1 51144U 22005AS  22101.91667824 -.00719461  00000-0 -25691-1 0  9997,2 51144  53.2172 229.7045 0001747  43.4572 185.3759 15.30990016  3645,6850.994000000002,94.057,474.056,471.662,0.0
51144.0,STARLINK-3185,PAYLOAD,2022-04-12 14:00:01,15.29966983,0.0002111,53.2174,226.6131,26.0254,277.9897,-0.026318,-0.00714341,0.0,0 STARLINK-3185,1 51144U 22005AS  22102.58334491 -.00714341  00000-0 -26318-1 0  9991,2 51144  53.2174 226.6131 0002111  26.0254 277.9897 15.29966983  3666,6854.0480000000025,94.12,477.36,474.466,0.0
51144.0,STARLINK-3185,PAYLOAD,2022-04-12 20:00:01,15.29583918,0.000138,53.2172,225.4554,47.0821,194.4938,-0.026581,-0.00712953,0.0,0 STARLINK-3185,1 51144U 22005AS  22102.83334491 -.00712953  00000-0 -26581-1 0  9998,2 51144  53.2172 225.4554 0001380  47.0821 194.4938 15.29583918 14439,6855.191999999999,94.143,478.003,476.111,0.0
51144.0,STARLINK-3185,PAYLOAD,2022-04-12 22:00:00,15.29368375,0.0001373,53.217,225.0675,37.0703,303.6645,-0.022099,-0.00596678,0.0,0 STARLINK-3185,1 51144U 22005AS  22102.91667824 -.00596678  00000-0 -22099-1 0  9990,2 51144  53.2170 225.0675 0001373  37.0703 303.6645 15.29368375  3634,6855.8359999999975,94.157,478.643,476.76,0.0
51144.0,STARLINK-3185,PAYLOAD,2022-04-13 14:00:03,15.28439672,0.0001754,53.2175,221.985,36.5979,15.7191,-0.027765,-0.00726771,0.0,0 STARLINK-3185,1 51144U 22005AS  22103.58336806 -.00726771  00000-0 -27765-1 0  9991,2 51144  53.2175 221.9850 0001754  36.5979  15.7191 15.28439672  3670,6858.613,94.214,481.681,479.275,0.0
51144.0,STARLINK-3185,PAYLOAD,2022-04-13 22:00:00,15.27928605,0.0001522,53.2172,220.4445,46.2266,40.7964,-0.028107,-0.00724395,0.0,0 STARLINK-3185,1 51144U 22005AS  22103.91667824 -.00724395  00000-0 -28107-1 0  9996,2 51144  53.2172 220.4445 0001522  46.2266  40.7964 15.27928605 14598,6860.142,94.245,483.052,480.963,0.0
51144.0,STARLINK-3185,PAYLOAD,2022-04-14 14:00:01,15.26908384,0.0001986,53.2174,217.3679,36.2965,118.554,-0.029002,-0.00724546,0.0,0 STARLINK-3185,1 51144U 22005AS  22104.58334491 -.00724546  00000-0 -29002-1 0  9994,2 51144  53.2174 217.3679 0001986  36.2965 118.5540 15.26908384  3664,6863.198,94.308,486.426,483.7,0.0
51144.0,STARLINK-3185,PAYLOAD,2022-04-14 22:00:00,15.26398813,0.0001656,53.2173,215.8306,49.1015,138.7437,-0.029469,-0.00724816,0.0,0 STARLINK-3185,1 51144U 22005AS  22104.91667824 -.00724816  00000-0 -29469-1 0  9997,2 51144  53.2173 215.8306 0001656  49.1015 138.7437 15.26398813 14757,6864.725,94.34,487.727,485.453,0.0
51144.0,STARLINK-3185,PAYLOAD,2022-04-15 14:00:01,15.25377682,0.0001861,53.2175,212.7613,42.3157,209.6803,-0.030316,-0.00723075,0.0,0 STARLINK-3185,1 51144U 22005AS  22105.58334491 -.00723075  00000-0 -30316-1 0  9991,2 51144  53.2175 212.7613 0001861  42.3157 209.6803 15.25377682  3669,6867.7890000000025,94.403,490.932,488.375,0.0
51144.0,STARLINK-3185,PAYLOAD,2022-04-15 22:00:00,15.24837461,0.0001565999999999,53.2169,211.2263,44.4684,238.6999,-0.028901,-0.00673546,0.0,0 STARLINK-3185,1 51144U 22005AS  22105.91667824 -.00673546  00000-0 -28901-1 0  9991,2 51144  53.2169 211.2263 0001566  44.4684 238.6999 15.24837461  3626,6869.411,94.436,492.351,490.2,0.0
51144.0,STARLINK-3185,PAYLOAD,2022-04-16 04:00:00,15.24485927,0.0001657,53.2173,210.0774,49.2234,166.8946,-0.031191,-0.0072411999999999,0.0,0 STARLINK-3185,1 51144U 22005AS  22106.16667824 -.00724120  00000-0 -31191-1 0  9999,2 51144  53.2173 210.0774 0001657  49.2234 166.8946 15.24485927 14947,6870.467,94.458,493.47,491.193,0.0
51144.0,STARLINK-3185,PAYLOAD,2022-04-16 14:00:01,15.23849589,0.000168,53.2176,208.1657,42.3567,301.2687,-0.031881,-0.00726012,0.0,0 STARLINK-3185,1 51144U 22005AS  22106.58334491 -.00726012  00000-0 -31881-1 0  9994,2 51144  53.2176 208.1657 0001680  42.3567 301.2687 15.23849589  3657,6872.379,94.498,495.399,493.09,0.0
51144.0,STARLINK-3185,PAYLOAD,2022-04-16 22:00:01,15.23259998,0.0001536,53.217,206.6339,39.7432,333.307,-0.027328,-0.00611818,0.0,0 STARLINK-3185,1 51144U 22005AS  22106.91668981 -.00611818  00000-0 -27328-1 0  9993,2 51144  53.2170 206.6339 0001536  39.7432 333.3070 15.23259998  3620,6874.151999999999,94.534,497.073,494.961,0.0
51144.0,STARLINK-3185,PAYLOAD,2022-04-17 06:00:00,15.22827281,0.0001622,53.2176,205.1061,41.9817,359.6683,-0.032648,-0.0072144999999999,0.0,0 STARLINK-3185,1 51144U 22005AS  22107.25001157 -.00721450  00000-0 -32648-1 0  9992,2 51144  53.2176 205.1061 0001622  41.9817 359.6683 15.22827281 15102,6875.454000000002,94.561,498.435,496.204,0.0
51144.0,STARLINK-3185,PAYLOAD,2022-04-17 14:00:01,15.2232078,0.0001865,53.2176,203.5808,36.8571,32.883,-0.03346,-0.00727914,0.0,0 STARLINK-3185,1 51144U 22005AS  22107.58334491 -.00727914  00000-0 -33460-1 0  9992,2 51144  53.2176 203.5808 0001865  36.8571  32.8830 15.22320780  3666,6876.979,94.592,500.127,497.562,0.0
51144.0,STARLINK-3185,PAYLOAD,2022-04-17 22:00:00,15.21739456,0.000167,53.2169,202.0525,37.6383,59.6191,-0.029121,-0.00622416,0.0,0 STARLINK-3185,1 51144U 22005AS  22107.91667824 -.00622416  00000-0 -29121-1 0  9998,2 51144  53.2169 202.0525 0001670  37.6383  59.6191 15.21739456  3628,6878.731,94.629,501.744,499.447,0.0
51144.0,STARLINK-3185,PAYLOAD,2022-04-18 06:00:00,15.21298515,0.0001743,53.2177,200.5283,42.7724,81.3154,-0.034238,-0.00722987,0.0,0 STARLINK-3185,1 51144U 22005AS  22108.25001157 -.00722987  00000-0 -34238-1 0  9996,2 51144  53.2177 200.5283 0001743  42.7724  81.3154 15.21298515 15268,6880.06,94.656,503.124,500.726,0.0
51144.0,STARLINK-3185,PAYLOAD,2022-04-18 14:00:01,15.20789216,0.0001939,53.2176,199.0067,39.08,111.2605,-0.0348529999999999,-0.00724903,0.0,0 STARLINK-3185,1 51144U 22005AS  22108.58334491 -.00724903  00000-0 -34853-1 0  9995,2 51144  53.2176 199.0067 0001939  39.0800 111.2605 15.20789216  3656,6881.596,94.688,504.795,502.126,0.0
51144.0,STARLINK-3185,PAYLOAD,2022-04-18 22:00:00,15.20191843,0.0001789,53.2169,197.4815,46.9356,129.0958,-0.029459,-0.00602973,0.0,0 STARLINK-3185,1 51144U 22005AS  22108.91667824 -.00602973  00000-0 -29459-1 0  9999,2 51144  53.2169 197.4815 0001789  46.9356 129.0958 15.20191843  3625,6883.398,94.725,506.495,504.032,0.0
51144.0,STARLINK-3185,PAYLOAD,2022-04-19 06:00:00,15.19768923,0.000178,53.2177,195.9614,46.6029,154.4078,-0.035821,-0.0072318,0.0,0 STARLINK-3185,1 51144U 22005AS  22109.25001157 -.00723180  00000-0 -35821-1 0  9992,2 51144  53.2177 195.9614 0001780  46.6029 154.4078 15.19768923 15411,6884.675,94.751,507.766,505.315,0.0
51144.0,STARLINK-3185,PAYLOAD,2022-04-19 14:00:01,15.19215925,0.0001585999999999,53.2172,194.442,56.1947,169.2518,-0.033126,-0.00662048,0.0,0 STARLINK-3185,1 51144U 22005AS  22109.58334491 -.00662048  00000-0 -33126-1 0  9999,2 51144  53.2172 194.4420 0001586  56.1947 169.2518 15.19215925  3626,6886.346,94.786,509.30300000000005,507.119,0.0
51144.0,STARLINK-3185,PAYLOAD,2022-04-20 14:00:01,15.17728286,0.000178,53.2177,189.8905,43.0574,251.9381,-0.037972,-0.00722506,0.0,0 STARLINK-3185,1 51144U 22005AS  22110.58334491 -.00722506  00000-0 -37972-1 0  9990,2 51144  53.2177 189.8905 0001780  43.0574 251.9381 15.17728286 15610,6890.845,94.879,513.937,511.484,0.0
